[{"OBJECT_NAME":"STARLINK-30182","OBJECT_ID":"2023-102J","EPOCH":"2026-03-09T22:00:01.999584","MEAN_MOTION":15.17692309,"ECCENTRICITY":0.00017334,"INCLINATION":43.0001,"RA_OF_ASC_NODE":246.596,"ARG_OF_PERICENTER":271.5021,"MEAN_ANOMALY":59.9842,"EPHEMERIS_TYPE":0,"CLASSIFICATION_TYPE":"U","NORAD_CAT_ID":57412,"ELEMENT_SET_NO":999,"REV_AT_EPOCH":577,"BSTAR":0.0061388079,"MEAN_MOTION_DOT":0.00128052,"MEAN_MOTION_DDOT":0},{"OBJECT_NAME":"PIAST-M","OBJECT_ID":"2025-276CW","EPOCH":"2026-03-09T17:04:49.285920","MEAN_MOTION":15.19194203,"ECCENTRICITY":7.473e-5,"INCLINATION":97.4255,"RA_OF_ASC_NODE":144.0316,"ARG_OF_PERICENTER":58.1322,"MEAN_ANOMALY":301.9986,"EPHEMERIS_TYPE":0,"CLASSIFICATION_TYPE":"U","NORAD_CAT_ID":66758,"ELEMENT_SET_NO":999,"REV_AT_EPOCH":1532,"BSTAR":0.00030409287,"MEAN_MOTION_DOT":6.332e-5,"MEAN_MOTION_DDOT":0}]
